{"type":"FeatureCollection", "features": [
{"type":"Feature","geometry":{"type":"Polygon","coordinates":[[[-177.32,-32.07],[-177.26,-32],[-177.18,-31.75],[-177.31,-31.85],[-177.38,-32.01],[-177.32,-32.07]]]},"properties":{"scalerank":0,"featurecla":"Bathymetry","depth":9000}},
{"type":"Feature","geometry":{"type":"Polygon","coordinates":[[[-176.71,-30.66],[-176.62,-30.41],[-176.67,-30.41],[-176.76,-30.62],[-176.71,-30.66]]]},"properties":{"scalerank":0,"featurecla":"Bathymetry","depth":9000}},
{"type":"Feature","geometry":{"type":"Polygon","coordinates":[[[-176.32,-29.87],[-176.2,-29.67],[-176.27,-29.59],[-176.32,-29.87]]]},"properties":{"scalerank":0,"featurecla":"Bathymetry","depth":9000}},
{"type":"Feature","geometry":{"type":"Polygon","coordinates":[[[-175.1,-24.06],[-174.96,-23.81],[-174.84,-23.72],[-174.85,-23.56],[-174.6,-23.3],[-174.43,-22.94],[-174.41,-22.7],[-174.65,-22.92],[-174.82,-23.18],[-174.92,-23.47],[-175.05,-23.65],[-175.1,-24.06]]]},"properties":{"scalerank":0,"featurecla":"Bathymetry","depth":9000}},
{"type":"Feature","geometry":{"type":"Polygon","coordinates":[[[127.37,7.02],[127.39,7.44],[127.32,7.43],[127.31,7.16],[127.37,7.02]]]},"properties":{"scalerank":0,"featurecla":"Bathymetry","depth":9000}},
{"type":"Feature","geometry":{"type":"Polygon","coordinates":[[[126.98,9.54],[126.97,9.67],[126.84,9.69],[126.9,9.55],[126.98,9.54]]]},"properties":{"scalerank":0,"featurecla":"Bathymetry","depth":9000}},
{"type":"Feature","geometry":{"type":"Polygon","coordinates":[[[126.86,9.82],[126.84,10.18],[126.66,10.22],[126.86,9.82]]]},"properties":{"scalerank":0,"featurecla":"Bathymetry","depth":9000}},
{"type":"Feature","geometry":{"type":"Polygon","coordinates":[[[126.67,10.49],[126.61,10.77],[126.55,10.76],[126.67,10.49]]]},"properties":{"scalerank":0,"featurecla":"Bathymetry","depth":9000}},
{"type":"Feature","geometry":{"type":"Polygon","coordinates":[[[141.64,11.1],[141.76,11.19],[141.75,11.26],[141.45,11.11],[141.64,11.1]]]},"properties":{"scalerank":0,"featurecla":"Bathymetry","depth":9000}},
{"type":"Feature","geometry":{"type":"Polygon","coordinates":[[[142.51,11.28],[142.7,11.28],[143.07,11.47],[142.27,11.47],[141.95,11.35],[142.04,11.18],[142.51,11.28]]]},"properties":{"scalerank":0,"featurecla":"Bathymetry","depth":9000}},
{"type":"Feature","geometry":{"type":"Polygon","coordinates":[[[144.74,12.13],[144.36,12.08],[144.37,11.9],[144.88,12.03],[144.74,12.13]]]},"properties":{"scalerank":0,"featurecla":"Bathymetry","depth":9000}},
{"type":"Feature","geometry":{"type":"Polygon","coordinates":[[[146.16,12.79],[146.28,12.93],[146.33,13.18],[146.25,13.19],[145.9,12.81],[146.16,12.79]]]},"properties":{"scalerank":0,"featurecla":"Bathymetry","depth":9000}},
{"type":"Feature","geometry":{"type":"Polygon","coordinates":[[[146.61,13.25],[146.71,13.38],[146.53,13.36],[146.61,13.25]]]},"properties":{"scalerank":0,"featurecla":"Bathymetry","depth":9000}},
{"type":"Feature","geometry":{"type":"Polygon","coordinates":[[[143.14,28.56],[143.17,28.66],[143.07,28.92],[142.96,29.04],[142.89,29.26],[142.78,29.18],[143.04,28.61],[143.14,28.56]]]},"properties":{"scalerank":0,"featurecla":"Bathymetry","depth":9000}},
{"type":"Feature","geometry":{"type":"Polygon","coordinates":[[[142.76,29.4],[142.79,29.59],[142.73,29.78],[142.59,29.79],[142.67,29.46],[142.76,29.4]]]},"properties":{"scalerank":0,"featurecla":"Bathymetry","depth":9000}},
{"type":"Feature","geometry":{"type":"Polygon","coordinates":[[[142.66,30],[142.67,30.08],[142.52,30.41],[142.44,30.43],[142.56,30.05],[142.66,30]]]},"properties":{"scalerank":0,"featurecla":"Bathymetry","depth":9000}},
{"type":"Feature","geometry":{"type":"Polygon","coordinates":[[[142.46,30.53],[142.48,30.8],[142.32,30.74],[142.32,30.65],[142.46,30.53]]]},"properties":{"scalerank":0,"featurecla":"Bathymetry","depth":9000}},
{"type":"Feature","geometry":{"type":"Polygon","coordinates":[[[142.27,31.24],[142.34,31.33],[142.25,31.5],[142.15,31.46],[142.27,31.24]]]},"properties":{"scalerank":0,"featurecla":"Bathymetry","depth":9000}},
{"type":"Feature","geometry":{"type":"Polygon","coordinates":[[[142.2,31.8],[142.2,32.09],[142.26,32.27],[142.12,32.24],[142.09,31.91],[142.2,31.8]]]},"properties":{"scalerank":0,"featurecla":"Bathymetry","depth":9000}},
{"type":"Feature","geometry":{"type":"Polygon","coordinates":[[[142.18,32.42],[142.19,32.51],[142.06,32.59],[142.09,32.43],[142.18,32.42]]]},"properties":{"scalerank":0,"featurecla":"Bathymetry","depth":9000}},
{"type":"Feature","geometry":{"type":"Polygon","coordinates":[[[142.17,33.12],[142.09,33.6],[142.18,33.74],[141.98,33.82],[141.92,33.71],[142.03,33.25],[142.17,33.12]]]},"properties":{"scalerank":0,"featurecla":"Bathymetry","depth":9000}},
{"type":"Feature","geometry":{"type":"Polygon","coordinates":[[[141.92,33.84],[142.08,34.05],[142.1,34.38],[141.96,34.49],[141.86,34.2],[141.92,33.84]]]},"properties":{"scalerank":0,"featurecla":"Bathymetry","depth":9000}}
]}