{"type":"FeatureCollection", "features": [
{"type":"Feature","geometry":{"type":"Polygon","coordinates":[[[142.2,32.61],[142.16,32.94],[142.35,33.17],[142.26,33.8],[142.15,33.96],[142.24,34.33],[142.11,34.89],[141.77,34.26],[141.68,33.83],[141.87,33.49],[142.03,32.86],[142.13,30.96],[142.43,30.36],[142.56,29.53],[142.74,29.05],[143.21,28.25],[143.29,26.97],[143.54,27.7],[143.33,28.37],[143.38,28.56],[143.18,28.89],[143.11,29.28],[142.87,29.76],[142.36,31.18],[142.46,31.4],[142.31,32.06],[142.37,32.59],[142.2,32.61]]]},"properties":{"scalerank":0,"featurecla":"Bathymetry","depth":8000}},
{"type":"Feature","geometry":{"type":"Polygon","coordinates":[[[-178.05,-34.07],[-178,-33.81],[-177.83,-33.42],[-177.93,-33.44],[-178.15,-33.97],[-178.05,-34.07]]]},"properties":{"scalerank":0,"featurecla":"Bathymetry","depth":8000}},
{"type":"Feature","geometry":{"type":"Polygon","coordinates":[[[-176.69,-30.97],[-176.46,-30.53],[-176.51,-30.27],[-176.11,-29.82],[-176.18,-29.3],[-176.53,-30.11],[-176.77,-30.45],[-177.19,-31.32],[-177.24,-31.69],[-177.5,-32.08],[-177.71,-32.81],[-177.44,-32.72],[-177.12,-32.02],[-177.15,-31.66],[-176.69,-30.97]]]},"properties":{"scalerank":0,"featurecla":"Bathymetry","depth":8000}},
{"type":"Feature","geometry":{"type":"Polygon","coordinates":[[[-174.68,-23.57],[-174.38,-23.06],[-174.27,-22.69],[-173.95,-22.25],[-173.88,-21.98],[-173.25,-20.68],[-173.7,-21.11],[-173.97,-21.89],[-175.09,-23.6],[-175.21,-24],[-174.97,-24.16],[-174.68,-23.57]]]},"properties":{"scalerank":0,"featurecla":"Bathymetry","depth":8000}},
{"type":"Feature","geometry":{"type":"Polygon","coordinates":[[[-172.6,-18.5],[-172.42,-18.13],[-172.48,-17.94],[-172.61,-18.36],[-172.6,-18.5]]]},"properties":{"scalerank":0,"featurecla":"Bathymetry","depth":8000}},
{"type":"Feature","geometry":{"type":"Polygon","coordinates":[[[153.82,-6.26],[153.92,-6.48],[153.99,-6.42],[153.92,-6.27],[153.82,-6.26]]]},"properties":{"scalerank":0,"featurecla":"Bathymetry","depth":8000}},
{"type":"Feature","geometry":{"type":"Polygon","coordinates":[[[127.72,5.5],[127.5,6.16],[127.42,7],[127.46,7.46],[127.28,7.69],[127.2,6.81],[127.32,6.16],[127.72,5.5]]]},"properties":{"scalerank":0,"featurecla":"Bathymetry","depth":8000}},
{"type":"Feature","geometry":{"type":"Polygon","coordinates":[[[127.23,8.83],[127.1,9.6],[126.79,10.44],[126.62,10.21],[126.91,9.34],[127.23,8.83]]]},"properties":{"scalerank":0,"featurecla":"Bathymetry","depth":8000}},
{"type":"Feature","geometry":{"type":"Polygon","coordinates":[[[126.5,11.1],[126.49,11.3],[126.31,11.24],[126.5,11.1]]]},"properties":{"scalerank":0,"featurecla":"Bathymetry","depth":8000}},
{"type":"Feature","geometry":{"type":"Polygon","coordinates":[[[146.83,13.51],[146.99,13.83],[147.36,14.19],[147.52,14.61],[147.4,14.69],[147.13,14.18],[146.76,13.78],[146.73,13.52],[146.38,13.53],[145.92,13.11],[145.86,12.9],[145.35,12.44],[144.75,12.29],[144.03,11.85],[143.46,11.6],[143.08,11.53],[142.23,11.51],[141.34,11.14],[141.41,11.02],[141.84,11.11],[142.78,11.21],[143.88,11.47],[144.45,11.88],[144.98,11.95],[145.61,12.34],[145.63,12.6],[145.85,12.75],[146.28,12.7],[146.33,13.08],[146.84,13.3],[146.83,13.51]]]},"properties":{"scalerank":0,"featurecla":"Bathymetry","depth":8000}},
{"type":"Feature","geometry":{"type":"Polygon","coordinates":[[[147.91,16.93],[147.95,17.21],[147.92,17.73],[147.79,17.76],[147.86,17.5],[147.85,16.97],[147.91,16.93]]]},"properties":{"scalerank":0,"featurecla":"Bathymetry","depth":8000}},
{"type":"Feature","geometry":{"type":"Polygon","coordinates":[[[-65.35,19.98],[-65.84,19.97],[-66.07,19.88],[-66.72,19.9],[-66.24,19.58],[-66.13,19.81],[-65.81,19.81],[-65.35,19.98]]]},"properties":{"scalerank":0,"featurecla":"Bathymetry","depth":8000}},
{"type":"Feature","geometry":{"type":"Polygon","coordinates":[[[151.1,44.35],[151.1,44.52],[150.22,44.21],[149.54,43.75],[148.92,43.55],[148.2,42.94],[148.99,43.2],[149.88,43.8],[150.89,44.16],[151.1,44.35]]]},"properties":{"scalerank":0,"featurecla":"Bathymetry","depth":8000}},
{"type":"Feature","geometry":{"type":"Polygon","coordinates":[[[153.87,45.99],[153.38,45.94],[153.2,45.63],[151.99,45.05],[151.42,44.65],[151.71,44.53],[152.16,44.69],[152.66,45.05],[153.11,45.23],[153.87,45.99]]]},"properties":{"scalerank":0,"featurecla":"Bathymetry","depth":8000}},
{"type":"Feature","geometry":{"type":"Polygon","coordinates":[[[156.94,48.46],[157.24,48.69],[157.1,48.69],[156.89,48.57],[156.94,48.46]]]},"properties":{"scalerank":0,"featurecla":"Bathymetry","depth":8000}}
]}