{"type":"FeatureCollection", "features": [
{"type":"Feature","geometry":{"type":"Polygon","coordinates":[[[-27.89,-54.85],[-27.53,-55.35],[-26.64,-55.3],[-26.37,-55.76],[-25.75,-55.7],[-25.67,-55.46],[-26.15,-55.13],[-26.76,-54.94],[-27.5,-55.01],[-27.89,-54.85]]]},"properties":{"scalerank":0,"featurecla":"Bathymetry","depth":7000}},
{"type":"Feature","geometry":{"type":"Polygon","coordinates":[[[-71.66,-26.94],[-71.58,-26.44],[-71.65,-26.53],[-71.66,-26.94]]]},"properties":{"scalerank":0,"featurecla":"Bathymetry","depth":7000}},
{"type":"Feature","geometry":{"type":"Polygon","coordinates":[[[-176.35,-30.67],[-176.47,-30.27],[-176.14,-30.01],[-176.02,-29.8],[-176.12,-29.54],[-175.78,-28.92],[-175.71,-28.43],[-175.42,-27.75],[-175.51,-27.49],[-175.32,-26.66],[-175.64,-26.8],[-175.8,-27.38],[-175.99,-28.44],[-176.23,-29.33],[-177.24,-31.34],[-177.29,-31.72],[-177.43,-31.85],[-177.71,-32.67],[-178.13,-33.48],[-178.32,-33.98],[-178.22,-34.1],[-178.41,-34.62],[-178.13,-34.66],[-178.1,-34.39],[-177.62,-33.5],[-177.49,-32.87],[-177.19,-32.47],[-177.06,-32.01],[-177.1,-31.73],[-176.9,-31.61],[-176.85,-31.33],[-176.62,-31.04],[-176.52,-30.7],[-176.35,-30.67]]]},"properties":{"scalerank":0,"featurecla":"Bathymetry","depth":7000}},
{"type":"Feature","geometry":{"type":"Polygon","coordinates":[[[154.21,-6.71],[153.86,-6.07],[153.68,-6.29],[153.93,-6.56],[154.21,-6.71]]]},"properties":{"scalerank":0,"featurecla":"Bathymetry","depth":7000}},
{"type":"Feature","geometry":{"type":"Polygon","coordinates":[[[137.87,8.25],[137.52,7.75],[137.6,7.76],[137.83,8.04],[137.87,8.25]]]},"properties":{"scalerank":0,"featurecla":"Bathymetry","depth":7000}},
{"type":"Feature","geometry":{"type":"Polygon","coordinates":[[[127.52,7.9],[127.44,8],[127.45,8.38],[127.27,8.83],[127.32,9],[127.1,9.91],[126.89,10.35],[126.72,11.12],[126.47,11.43],[126.41,11.79],[126.2,11.9],[126.22,11.47],[126.36,10.8],[126.53,10.48],[126.54,10.28],[126.79,9.67],[126.86,9.26],[127.08,8.85],[127.19,8.46],[127.39,8.31],[127.23,8.14],[127.22,7.22],[127.08,6.79],[127.09,6.57],[127.25,6.15],[127.44,5.9],[127.56,5.59],[127.49,5.35],[127.89,5.1],[128.1,4.78],[128.26,4.93],[127.87,5.31],[127.61,6.01],[127.54,6.32],[127.49,6.94],[127.54,7.29],[127.44,7.67],[127.52,7.9]]]},"properties":{"scalerank":0,"featurecla":"Bathymetry","depth":7000}},
{"type":"Feature","geometry":{"type":"Polygon","coordinates":[[[128.09,24.91],[128.3,25.06],[128.42,25.26],[128.1,25.02],[128.09,24.91]]]},"properties":{"scalerank":0,"featurecla":"Bathymetry","depth":7000}},
{"type":"Feature","geometry":{"type":"Polygon","coordinates":[[[142.88,36.07],[143.18,36.34],[143.48,36.75],[143.88,37.46],[143.42,37.13],[143.35,36.89],[142.74,36.2],[142.88,36.07]]]},"properties":{"scalerank":0,"featurecla":"Bathymetry","depth":7000}},
{"type":"Feature","geometry":{"type":"Polygon","coordinates":[[[145.26,41.27],[144.84,41.23],[144.87,41.16],[145.26,41.27]]]},"properties":{"scalerank":0,"featurecla":"Bathymetry","depth":7000}},
{"type":"Feature","geometry":{"type":"Polygon","coordinates":[[[-174.7,43.49],[-174.75,43.43],[-174.58,43.42],[-174.7,43.49]]]},"properties":{"scalerank":0,"featurecla":"Bathymetry","depth":7000}},
{"type":"Feature","geometry":{"type":"Polygon","coordinates":[[[-174.47,50.63],[-174.49,50.71],[-174.84,50.62],[-175.09,50.64],[-175.51,50.6],[-175.69,50.51],[-174.98,50.52],[-174.79,50.62],[-174.47,50.63]]]},"properties":{"scalerank":0,"featurecla":"Bathymetry","depth":7000}},
{"type":"Feature","geometry":{"type":"Polygon","coordinates":[[[-23.95,-57.71],[-23.81,-57.58],[-24.07,-57.53],[-24.11,-57.68],[-23.95,-57.71]]]},"properties":{"scalerank":0,"featurecla":"Bathymetry","depth":7000}},
{"type":"Feature","geometry":{"type":"Polygon","coordinates":[[[-29.22,-54.91],[-28.76,-55.08],[-28.63,-54.99],[-29.22,-54.91]]]},"properties":{"scalerank":0,"featurecla":"Bathymetry","depth":7000}},
{"type":"Feature","geometry":{"type":"Polygon","coordinates":[[[-178.39,-35.04],[-178.58,-35.04],[-178.75,-35.28],[-178.9,-35.7],[-178.74,-35.83],[-178.5,-35.49],[-178.39,-35.04]]]},"properties":{"scalerank":0,"featurecla":"Bathymetry","depth":7000}},
{"type":"Feature","geometry":{"type":"Polygon","coordinates":[[[-71.43,-24.62],[-71.39,-24.16],[-71.3,-23.75],[-71.26,-22.75],[-71.41,-23.33],[-71.37,-23.83],[-71.46,-24.13],[-71.43,-24.62]]]},"properties":{"scalerank":0,"featurecla":"Bathymetry","depth":7000}},
{"type":"Feature","geometry":{"type":"Polygon","coordinates":[[[-173.11,-20.75],[-172.87,-20.1],[-172.76,-19.55],[-172.58,-19.1],[-172.74,-18.72],[-172.97,-19.06],[-172.98,-19.31],[-173.16,-19.73],[-173.26,-20.21],[-173.47,-20.62],[-173.47,-20.78],[-173.76,-21.12],[-174,-21.87],[-174.26,-22.32],[-174.65,-22.8],[-174.97,-23.37],[-175.17,-23.6],[-175.26,-23.86],[-175.27,-24.62],[-175.11,-24.91],[-174.94,-24.62],[-174.72,-23.78],[-174.43,-23.18],[-174.14,-22.75],[-173.81,-22.03],[-173.29,-21.16],[-173.27,-20.82],[-173.11,-20.75]]]},"properties":{"scalerank":0,"featurecla":"Bathymetry","depth":7000}},
{"type":"Feature","geometry":{"type":"Polygon","coordinates":[[[-172.6,-18.55],[-172.34,-18.07],[-172.2,-17.47],[-172.15,-16.82],[-172.04,-16.32],[-172.08,-15.91],[-172.28,-15.39],[-172.39,-15.46],[-172.24,-15.83],[-172.21,-16.24],[-172.34,-16.73],[-172.3,-16.94],[-172.58,-17.95],[-172.6,-18.55]]]},"properties":{"scalerank":0,"featurecla":"Bathymetry","depth":7000}},
{"type":"Feature","geometry":{"type":"Polygon","coordinates":[[[-172.75,-15.12],[-172.6,-14.98],[-172.77,-14.87],[-172.86,-15.1],[-172.75,-15.12]]]},"properties":{"scalerank":0,"featurecla":"Bathymetry","depth":7000}},
{"type":"Feature","geometry":{"type":"Polygon","coordinates":[[[166.04,-12.57],[165.77,-11.71],[165.61,-11.74],[165.77,-12.07],[165.89,-12.5],[166.04,-12.57]]]},"properties":{"scalerank":0,"featurecla":"Bathymetry","depth":7000}},
{"type":"Feature","geometry":{"type":"Polygon","coordinates":[[[162.3,-11.4],[162.32,-11.35],[162.16,-11.32],[162.19,-11.41],[162.3,-11.4]]]},"properties":{"scalerank":0,"featurecla":"Bathymetry","depth":7000}},
{"type":"Feature","geometry":{"type":"Polygon","coordinates":[[[163.12,-11.27],[163.02,-11.2],[162.6,-11.29],[162.58,-11.37],[162.89,-11.27],[163.12,-11.27]]]},"properties":{"scalerank":0,"featurecla":"Bathymetry","depth":7000}},
{"type":"Feature","geometry":{"type":"Polygon","coordinates":[[[154.63,-7.13],[154.63,-7.01],[154.42,-6.8],[154.31,-6.91],[154.5,-6.97],[154.63,-7.13]]]},"properties":{"scalerank":0,"featurecla":"Bathymetry","depth":7000}},
{"type":"Feature","geometry":{"type":"Polygon","coordinates":[[[152.9,-5.75],[152.52,-5.76],[152.59,-5.93],[152.9,-5.75]]]},"properties":{"scalerank":0,"featurecla":"Bathymetry","depth":7000}},
{"type":"Feature","geometry":{"type":"Polygon","coordinates":[[[131.11,-6.13],[131.26,-5.86],[131.13,-5.64],[131.16,-5.41],[130.91,-5.09],[130.91,-5.96],[131.11,-6.13]]]},"properties":{"scalerank":0,"featurecla":"Bathymetry","depth":7000}},
{"type":"Feature","geometry":{"type":"Polygon","coordinates":[[[135.03,7.64],[135.06,7.82],[134.94,7.83],[135.03,7.64]]]},"properties":{"scalerank":0,"featurecla":"Bathymetry","depth":7000}},
{"type":"Feature","geometry":{"type":"Polygon","coordinates":[[[137.91,8.3],[138.11,8.61],[137.88,8.54],[137.91,8.3]]]},"properties":{"scalerank":0,"featurecla":"Bathymetry","depth":7000}},
{"type":"Feature","geometry":{"type":"Polygon","coordinates":[[[138.74,10.33],[138.77,10.62],[138.63,10.53],[138.74,10.33]]]},"properties":{"scalerank":0,"featurecla":"Bathymetry","depth":7000}},
{"type":"Feature","geometry":{"type":"Polygon","coordinates":[[[125.66,12.96],[125.7,13.1],[125.6,13.17],[125.62,13.02],[125.66,12.96]]]},"properties":{"scalerank":0,"featurecla":"Bathymetry","depth":7000}},
{"type":"Feature","geometry":{"type":"Polygon","coordinates":[[[147.57,14.71],[147.65,15.2],[147.33,14.91],[147.38,14.79],[147.12,14.52],[147.06,14.22],[146.67,13.81],[146.46,13.74],[146.11,13.42],[145.62,12.8],[145.31,12.49],[144.96,12.65],[144.85,12.41],[144.51,12.19],[144.26,12.2],[143.75,11.77],[143.17,11.57],[142.91,11.54],[142.53,11.61],[142.36,11.55],[141.84,11.53],[141.59,11.43],[141.02,10.93],[141.43,10.92],[142.15,11.09],[142.9,11.11],[143.76,11.3],[144.1,11.59],[144.66,11.9],[144.84,11.82],[145.66,12.22],[145.81,12.45],[145.99,12.43],[146.34,12.62],[146.38,13],[146.49,13.14],[146.79,13.12],[146.9,13.57],[147.1,13.85],[147.45,14.03],[147.57,14.71]]]},"properties":{"scalerank":0,"featurecla":"Bathymetry","depth":7000}},
{"type":"Feature","geometry":{"type":"Polygon","coordinates":[[[147.67,15.44],[147.82,15.6],[147.7,15.69],[147.67,15.44]]]},"properties":{"scalerank":0,"featurecla":"Bathymetry","depth":7000}},
{"type":"Feature","geometry":{"type":"Polygon","coordinates":[[[147.9,16.44],[148,16.59],[148.15,17.26],[148.06,17.47],[148.13,17.66],[148.06,17.93],[147.72,17.8],[147.82,17.38],[147.75,16.84],[147.9,16.44]]]},"properties":{"scalerank":0,"featurecla":"Bathymetry","depth":7000}},
{"type":"Feature","geometry":{"type":"Polygon","coordinates":[[[147.82,18.11],[147.97,18.21],[147.81,18.26],[147.82,18.11]]]},"properties":{"scalerank":0,"featurecla":"Bathymetry","depth":7000}},
{"type":"Feature","geometry":{"type":"Polygon","coordinates":[[[-79.32,19.25],[-79.92,19.22],[-79.78,19.15],[-79.61,19.15],[-79.32,19.25]]]},"properties":{"scalerank":0,"featurecla":"Bathymetry","depth":7000}},
{"type":"Feature","geometry":{"type":"Polygon","coordinates":[[[-65.16,20.04],[-65.33,20.16],[-65.86,20.14],[-66.37,19.92],[-66.67,19.95],[-66.92,19.88],[-67.44,19.87],[-68.05,19.79],[-68.26,19.58],[-67.57,19.49],[-67.34,19.34],[-66.94,19.47],[-66.72,19.2],[-66.53,19.11],[-66.21,19.2],[-65.56,19.22],[-65.76,19.43],[-65.69,19.75],[-65.04,19.62],[-64.99,19.46],[-64.56,19.68],[-64.06,19.83],[-63.8,19.72],[-63.07,19.69],[-63.31,19.87],[-64.33,19.88],[-64.51,19.97],[-65.16,20.04]]]},"properties":{"scalerank":0,"featurecla":"Bathymetry","depth":7000}},
{"type":"Feature","geometry":{"type":"Polygon","coordinates":[[[145.38,22.99],[145.35,22.69],[145.55,22.62],[145.77,22.15],[145.94,22.15],[146.01,22.49],[145.83,22.74],[145.57,22.78],[145.38,22.99]]]},"properties":{"scalerank":0,"featurecla":"Bathymetry","depth":7000}},
{"type":"Feature","geometry":{"type":"Polygon","coordinates":[[[127.08,24.19],[127.19,24.27],[127.15,24.36],[127.06,24.3],[127.08,24.19]]]},"properties":{"scalerank":0,"featurecla":"Bathymetry","depth":7000}},
{"type":"Feature","geometry":{"type":"Polygon","coordinates":[[[127.35,24.46],[127.62,24.66],[127.52,24.66],[127.37,24.55],[127.35,24.46]]]},"properties":{"scalerank":0,"featurecla":"Bathymetry","depth":7000}},
{"type":"Feature","geometry":{"type":"Polygon","coordinates":[[[144.24,23.71],[144.12,23.98],[143.62,24.41],[143.96,23.85],[144.24,23.71]]]},"properties":{"scalerank":0,"featurecla":"Bathymetry","depth":7000}},
{"type":"Feature","geometry":{"type":"Polygon","coordinates":[[[141.6,34.27],[141.55,34.39],[141.35,34.49],[141.35,34.37],[141.6,34.27]]]},"properties":{"scalerank":0,"featurecla":"Bathymetry","depth":7000}},
{"type":"Feature","geometry":{"type":"Polygon","coordinates":[[[141.47,34.11],[141.56,33.68],[141.82,33.41],[141.79,32.88],[141.93,32.76],[141.78,32.45],[141.99,32.03],[142.08,31.66],[142.03,31.15],[142.07,30.79],[142.32,30.47],[142.47,29.95],[142.49,29.6],[142.97,28.48],[143.19,28.17],[143.22,27.84],[143.16,27.32],[143.32,26.83],[143.55,27.01],[143.45,27.23],[143.71,27.44],[143.69,28.13],[143.54,28.36],[143.47,28.73],[143.33,28.89],[142.92,29.96],[142.94,30.16],[142.63,30.73],[142.69,31.1],[142.49,31.87],[142.53,32.62],[142.2,32.65],[142.17,32.88],[142.52,32.97],[142.42,33.38],[142.35,33.97],[142.23,34.1],[142.34,34.42],[142.23,34.58],[142.38,34.81],[142.39,35.22],[142.15,35.28],[141.9,34.49],[141.59,34.02],[141.47,34.11]]]},"properties":{"scalerank":0,"featurecla":"Bathymetry","depth":7000}},
{"type":"Feature","geometry":{"type":"Polygon","coordinates":[[[-162.13,37.42],[-162.74,37.42],[-162.76,37.33],[-162.13,37.42]]]},"properties":{"scalerank":0,"featurecla":"Bathymetry","depth":7000}},
{"type":"Feature","geometry":{"type":"Polygon","coordinates":[[[-177.09,38.55],[-177.14,38.64],[-177.38,38.88],[-177.42,38.99],[-177.61,39.1],[-177.64,39.02],[-177.46,38.9],[-177.29,38.69],[-177.09,38.55]]]},"properties":{"scalerank":0,"featurecla":"Bathymetry","depth":7000}},
{"type":"Feature","geometry":{"type":"Polygon","coordinates":[[[-178.79,39.74],[-178.73,39.8],[-179.02,39.95],[-178.92,39.77],[-178.79,39.74]]]},"properties":{"scalerank":0,"featurecla":"Bathymetry","depth":7000}},
{"type":"Feature","geometry":{"type":"Polygon","coordinates":[[[147.29,42.29],[147.55,42.33],[147.59,42.45],[147.29,42.29]]]},"properties":{"scalerank":0,"featurecla":"Bathymetry","depth":7000}},
{"type":"Feature","geometry":{"type":"Polygon","coordinates":[[[174.1,45.31],[174.14,45.06],[174.3,45.1],[174.1,45.31]]]},"properties":{"scalerank":0,"featurecla":"Bathymetry","depth":7000}},
{"type":"Feature","geometry":{"type":"Polygon","coordinates":[[[154.2,46.06],[154.74,46.7],[154.19,46.51],[154.02,46.3],[153.16,45.95],[153.04,45.69],[152.23,45.24],[151.93,45.21],[151.32,44.72],[150.55,44.54],[149.6,43.92],[148.89,43.58],[148.15,43.08],[147.65,42.63],[147.81,42.53],[148.25,42.67],[148.66,42.94],[149.28,43.2],[150,43.68],[151.7,44.36],[152.53,44.78],[153.01,45.12],[153.34,45.23],[153.44,45.44],[153.92,45.76],[154.2,46.06]]]},"properties":{"scalerank":0,"featurecla":"Bathymetry","depth":7000}},
{"type":"Feature","geometry":{"type":"Polygon","coordinates":[[[155.81,47.52],[155.94,47.72],[156.51,48.16],[157.23,48.53],[157.75,49.08],[157.09,48.92],[157.04,48.71],[156.72,48.53],[156.02,47.86],[155.81,47.52]]]},"properties":{"scalerank":0,"featurecla":"Bathymetry","depth":7000}},
{"type":"Feature","geometry":{"type":"Polygon","coordinates":[[[159.04,49.91],[159.14,49.99],[159.29,50.03],[159.19,50.11],[159.04,49.91]]]},"properties":{"scalerank":0,"featurecla":"Bathymetry","depth":7000}},
{"type":"Feature","geometry":{"type":"Polygon","coordinates":[[[178.91,50.5],[178.88,50.38],[179.5,50.28],[180,50.3],[180,50.35],[179.4,50.47],[178.91,50.5]]]},"properties":{"scalerank":0,"featurecla":"Bathymetry","depth":7000}},
{"type":"Feature","geometry":{"type":"Polygon","coordinates":[[[-175.99,50.48],[-176.2,50.52],[-176.62,50.52],[-177.28,50.41],[-177.77,50.42],[-178.11,50.4],[-178.01,50.28],[-177.72,50.35],[-177.48,50.33],[-177.01,50.36],[-176.51,50.45],[-175.99,50.48]]]},"properties":{"scalerank":0,"featurecla":"Bathymetry","depth":7000}},
{"type":"Feature","geometry":{"type":"Polygon","coordinates":[[[178.58,50.43],[178.48,50.57],[178.19,50.46],[178.58,50.43]]]},"properties":{"scalerank":0,"featurecla":"Bathymetry","depth":7000}},
{"type":"Feature","geometry":{"type":"Polygon","coordinates":[[[177.96,50.45],[178.1,50.52],[177.87,50.6],[177.73,50.56],[177.96,50.45]]]},"properties":{"scalerank":0,"featurecla":"Bathymetry","depth":7000}},
{"type":"Feature","geometry":{"type":"Polygon","coordinates":[[[-173.96,50.67],[-173.74,50.78],[-174.12,50.77],[-173.96,50.67]]]},"properties":{"scalerank":0,"featurecla":"Bathymetry","depth":7000}},
{"type":"Feature","geometry":{"type":"Polygon","coordinates":[[[176.18,50.98],[176.35,50.81],[176.69,50.72],[177.34,50.71],[176.18,50.98]]]},"properties":{"scalerank":0,"featurecla":"Bathymetry","depth":7000}},
{"type":"Feature","geometry":{"type":"Polygon","coordinates":[[[173.53,51.49],[173.59,51.4],[173.9,51.37],[174.1,51.27],[174.64,51.18],[174.66,51.24],[174.21,51.31],[173.9,51.43],[173.53,51.49]]]},"properties":{"scalerank":0,"featurecla":"Bathymetry","depth":7000}},
{"type":"Feature","geometry":{"type":"Polygon","coordinates":[[[-169.09,51.48],[-171.31,51.07],[-171.6,50.98],[-172.52,50.94],[-172.51,50.78],[-171.86,50.93],[-169.89,51.18],[-169.61,51.37],[-169.09,51.48]]]},"properties":{"scalerank":0,"featurecla":"Bathymetry","depth":7000}},
{"type":"Feature","geometry":{"type":"Polygon","coordinates":[[[-168.81,51.52],[-168.55,51.55],[-168.31,51.74],[-168.79,51.65],[-168.81,51.52]]]},"properties":{"scalerank":0,"featurecla":"Bathymetry","depth":7000}},
{"type":"Feature","geometry":{"type":"Polygon","coordinates":[[[160.73,51.39],[161.27,51.82],[161.18,51.91],[160.63,51.58],[160.29,51.29],[160.54,51.17],[160.73,51.39]]]},"properties":{"scalerank":0,"featurecla":"Bathymetry","depth":7000}},
{"type":"Feature","geometry":{"type":"Polygon","coordinates":[[[162.59,53.43],[162.32,53.05],[162.77,53.18],[162.59,53.43]]]},"properties":{"scalerank":0,"featurecla":"Bathymetry","depth":7000}}
]}